{"type": "FeatureCollection", "features": [ {"type": "Feature", "properties": {"norad_id": 54234, "name": "NOAA 21 (JPSS-2)", "group": "weather", "lat": -16.217862543176864, "lon": -80.4408059359597, "alt_km": 831.0050137579892, "timestamp": "2025-12-06T14:35:36.771039+00:00", "meta": {"OBJECT_NAME": "NOAA 21 (JPSS-2)", "OBJECT_ID": "2022-150A", "EPOCH": "2025-12-06T06:12:44.483616", "MEAN_MOTION": 14.19521529, "ECCENTRICITY": 0.00024444, "INCLINATION": 98.7453, "RA_OF_ASC_NODE": 276.6483, "ARG_OF_PERICENTER": 50.2263, "MEAN_ANOMALY": 309.9128, "EPHEMERIS_TYPE": 0, "CLASSIFICATION_TYPE": "U", "NORAD_CAT_ID": 54234, "ELEMENT_SET_NO": 999, "REV_AT_EPOCH": 15917, "BSTAR": 0.00012604071, "MEAN_MOTION_DOT": 2.22e-06, "MEAN_MOTION_DDOT": 0}, "tle": {"line1": "1 54234U 22150A   25340.25884819  .00000222  00000+0  12604-3 0  9998", "line2": "2 54234  98.7453 276.6483 0002444  50.2263 309.9128 14.19521529159178"}}, "geometry": {"type": "Point", "coordinates": [-80.4408059359597, -16.217862543176864]}}, {"type": "Feature", "properties": {"norad_id": 54743, "name": "METEOSAT-12 (MTG-I1)", "group": "weather", "lat": -0.7346057728896457, "lon": -65.7064892393937, "alt_km": 35780.70011617466, "timestamp": "2025-12-06T14:35:36.771051+00:00", "meta": {"OBJECT_NAME": "METEOSAT-12 (MTG-I1)", "OBJECT_ID": "2022-170C", "EPOCH": "2025-12-06T06:08:38.706720", "MEAN_MOTION": 1.00274269, "ECCENTRICITY": 0.00015447, "INCLINATION": 0.722, "RA_OF_ASC_NODE": 30.5247, "ARG_OF_PERICENTER": 220.4766, "MEAN_ANOMALY": 276.1989, "EPHEMERIS_TYPE": 0, "CLASSIFICATION_TYPE": "U", "NORAD_CAT_ID": 54743, "ELEMENT_SET_NO": 999, "REV_AT_EPOCH": 1104, "BSTAR": 0, "MEAN_MOTION_DOT": 1e-08, "MEAN_MOTION_DDOT": 0}, "tle": {"line1": "1 54743U 22170C   25340.25600355  .00000001  00000+0  00000+0 0  9994", "line2": "2 54743   0.7220  30.5247 0001544 220.4766 276.1989  1.00274269 11047"}}, "geometry": {"type": "Point", "coordinates": [-65.7064892393937, -0.7346057728896457]}}, {"type": "Feature", "properties": {"norad_id": 55973, "name": "TIANMU-1 03", "group": "weather", "lat": 61.861236712157165, "lon": -22.628257608424192, "alt_km": 435.76361102236206, "timestamp": "2025-12-06T14:35:36.771061+00:00", "meta": {"OBJECT_NAME": "TIANMU-1 03", "OBJECT_ID": "2023-039A", "EPOCH": "2025-12-06T06:17:35.664576", "MEAN_MOTION": 15.40641804, "ECCENTRICITY": 0.00045416, "INCLINATION": 97.5107, "RA_OF_ASC_NODE": 142.7346, "ARG_OF_PERICENTER": 79.5135, "MEAN_ANOMALY": 280.6622, "EPHEMERIS_TYPE": 0, "CLASSIFICATION_TYPE": "U", "NORAD_CAT_ID": 55973, "ELEMENT_SET_NO": 999, "REV_AT_EPOCH": 15106, "BSTAR": 0.00059776391, "MEAN_MOTION_DOT": 0.00024326, "MEAN_MOTION_DDOT": 0}, "tle": {"line1": "1 55973U 23039A   25340.26221834  .00024326  00000+0  59776-3 0  9991", "line2": "2 55973  97.5107 142.7346 0004541  79.5135 280.6622 15.40641804151063"}}, "geometry": {"type": "Point", "coordinates": [-22.628257608424192, 61.861236712157165]}}, {"type": "Feature", "properties": {"norad_id": 55974, "name": "TIANMU-1 04", "group": "weather", "lat": -43.363814840063114, "lon": -44.868048907991465, "alt_km": 453.00535109600605, "timestamp": "2025-12-06T14:35:36.771072+00:00", "meta": {"OBJECT_NAME": "TIANMU-1 04", "OBJECT_ID": "2023-039B", "EPOCH": "2025-12-06T05:50:00.971520", "MEAN_MOTION": 15.40973249, "ECCENTRICITY": 0.00052502, "INCLINATION": 97.5039, "RA_OF_ASC_NODE": 141.9087, "ARG_OF_PERICENTER": 75.4522, "MEAN_ANOMALY": 284.7306, "EPHEMERIS_TYPE": 0, "CLASSIFICATION_TYPE": "U", "NORAD_CAT_ID": 55974, "ELEMENT_SET_NO": 999, "REV_AT_EPOCH": 15106, "BSTAR": 0.00062401288, "MEAN_MOTION_DOT": 0.00025685, "MEAN_MOTION_DDOT": 0}, "tle": {"line1": "1 55974U 23039B   25340.24306680  .00025685  00000+0  62401-3 0  9991", "line2": "2 55974  97.5039 141.9087 0005250  75.4522 284.7306 15.40973249151069"}}, "geometry": {"type": "Point", "coordinates": [-44.868048907991465, -43.363814840063114]}}, {"type": "Feature", "properties": {"norad_id": 55975, "name": "TIANMU-1 05", "group": "weather", "lat": -80.35059209159189, "lon": -88.09878426189742, "alt_km": 454.57716432767484, "timestamp": "2025-12-06T14:35:36.771082+00:00", "meta": {"OBJECT_NAME": "TIANMU-1 05", "OBJECT_ID": "2023-039C", "EPOCH": "2025-12-06T05:39:26.568288", "MEAN_MOTION": 15.40598745, "ECCENTRICITY": 0.00043731, "INCLINATION": 97.5086, "RA_OF_ASC_NODE": 142.3932, "ARG_OF_PERICENTER": 96.4199, "MEAN_ANOMALY": 263.7545, "EPHEMERIS_TYPE": 0, "CLASSIFICATION_TYPE": "U", "NORAD_CAT_ID": 55975, "ELEMENT_SET_NO": 999, "REV_AT_EPOCH": 15104, "BSTAR": 0.00060859755, "MEAN_MOTION_DOT": 0.00024734, "MEAN_MOTION_DDOT": 0}, "tle": {"line1": "1 55975U 23039C   25340.23572417  .00024734  00000+0  60860-3 0  9995", "line2": "2 55975  97.5086 142.3932 0004373  96.4199 263.7545 15.40598745151048"}}, "geometry": {"type": "Point", "coordinates": [-88.09878426189742, -80.35059209159189]}}, {"type": "Feature", "properties": {"norad_id": 55976, "name": "TIANMU-1 06", "group": "weather", "lat": -30.361362728222808, "lon": -41.196341663095865, "alt_km": 450.71035868959734, "timestamp": "2025-12-06T14:35:36.771092+00:00", "meta": {"OBJECT_NAME": "TIANMU-1 06", "OBJECT_ID": "2023-039D", "EPOCH": "2025-12-06T05:53:27.909024", "MEAN_MOTION": 15.41025713, "ECCENTRICITY": 0.00047231, "INCLINATION": 97.5096, "RA_OF_ASC_NODE": 142.863, "ARG_OF_PERICENTER": 91.8721, "MEAN_ANOMALY": 268.3066, "EPHEMERIS_TYPE": 0, "CLASSIFICATION_TYPE": "U", "NORAD_CAT_ID": 55976, "ELEMENT_SET_NO": 999, "REV_AT_EPOCH": 15106, "BSTAR": 0.00061477565, "MEAN_MOTION_DOT": 0.00025344, "MEAN_MOTION_DDOT": 0}, "tle": {"line1": "1 55976U 23039D   25340.24546191  .00025344  00000+0  61478-3 0  9991", "line2": "2 55976  97.5096 142.8630 0004723  91.8721 268.3066 15.41025713151061"}}, "geometry": {"type": "Point", "coordinates": [-41.196341663095865, -30.361362728222808]}}, {"type": "Feature", "properties": {"norad_id": 56232, "name": "FENGYUN 3G", "group": "weather", "lat": -21.120985806778798, "lon": -119.84784240234528, "alt_km": 415.7296883895933, "timestamp": "2025-12-06T14:35:36.771105+00:00", "meta": {"OBJECT_NAME": "FENGYUN 3G", "OBJECT_ID": "2023-055A", "EPOCH": "2025-12-06T05:26:57.789600", "MEAN_MOTION": 15.53072733, "ECCENTRICITY": 0.00092298, "INCLINATION": 49.9946, "RA_OF_ASC_NODE": 261.0487, "ARG_OF_PERICENTER": 117.34, "MEAN_ANOMALY": 242.8508, "EPHEMERIS_TYPE": 0, "CLASSIFICATION_TYPE": "U", "NORAD_CAT_ID": 56232, "ELEMENT_SET_NO": 999, "REV_AT_EPOCH": 15001, "BSTAR": 0.0007573125, "MEAN_MOTION_DOT": 0.00048215, "MEAN_MOTION_DDOT": 0}, "tle": {"line1": "1 56232U 23055A   25340.22705775  .00048215  00000+0  75731-3 0  9997", "line2": "2 56232  49.9946 261.0487 0009229 117.3400 242.8508 15.53072733150019"}}, "geometry": {"type": "Point", "coordinates": [-119.84784240234528, -21.120985806778798]}}, {"type": "Feature", "properties": {"norad_id": 57166, "name": "METEOR-M2 3", "group": "weather", "lat": 28.409573612781596, "lon": -141.0287854714451, "alt_km": 812.2257695315047, "timestamp": "2025-12-06T14:35:36.771129+00:00", "meta": {"OBJECT_NAME": "METEOR-M2 3", "OBJECT_ID": "2023-091A", "EPOCH": "2025-12-06T07:08:28.167936", "MEAN_MOTION": 14.24024967, "ECCENTRICITY": 0.00042595, "INCLINATION": 98.6388, "RA_OF_ASC_NODE": 33.9492, "ARG_OF_PERICENTER": 26.431, "MEAN_ANOMALY": 333.7086, "EPHEMERIS_TYPE": 0, "CLASSIFICATION_TYPE": "U", "NORAD_CAT_ID": 57166, "ELEMENT_SET_NO": 999, "REV_AT_EPOCH": 12706, "BSTAR": 5.4698596e-05, "MEAN_MOTION_DOT": 8.2e-07, "MEAN_MOTION_DDOT": 0}, "tle": {"line1": "1 57166U 23091A   25340.29754824  .00000082  00000+0  54699-4 0  9991", "line2": "2 57166  98.6388  33.9492 0004259  26.4310 333.7086 14.24024967127060"}}, "geometry": {"type": "Point", "coordinates": [-141.0287854714451, 28.409573612781596]}}, {"type": "Feature", "properties": {"norad_id": 57399, "name": "TIANMU-1 07", "group": "weather", "lat": -26.806028043032793, "lon": -153.11370256486597, "alt_km": 489.13385544519133, "timestamp": "2025-12-06T14:35:36.771142+00:00", "meta": {"OBJECT_NAME": "TIANMU-1 07", "OBJECT_ID": "2023-101A", "EPOCH": "2025-12-06T05:49:56.597088", "MEAN_MOTION": 15.27931794, "ECCENTRICITY": 0.0005614, "INCLINATION": 97.2882, "RA_OF_ASC_NODE": 30.237, "ARG_OF_PERICENTER": 97.868, "MEAN_ANOMALY": 262.3197, "EPHEMERIS_TYPE": 0, "CLASSIFICATION_TYPE": "U", "NORAD_CAT_ID": 57399, "ELEMENT_SET_NO": 999, "REV_AT_EPOCH": 13216, "BSTAR": 0.00045784484, "MEAN_MOTION_DOT": 0.00012421, "MEAN_MOTION_DDOT": 0}, "tle": {"line1": "1 57399U 23101A   25340.24301617  .00012421  00000+0  45784-3 0  9998", "line2": "2 57399  97.2882  30.2370 0005614  97.8680 262.3197 15.27931794132161"}}, "geometry": {"type": "Point", "coordinates": [-153.11370256486597, -26.806028043032793]}}, {"type": "Feature", "properties": {"norad_id": 57400, "name": "TIANMU-1 08", "group": "weather", "lat": 28.51441798406963, "lon": 26.40662382498494, "alt_km": 479.19329633283814, "timestamp": "2025-12-06T14:35:36.771152+00:00", "meta": {"OBJECT_NAME": "TIANMU-1 08", "OBJECT_ID": "2023-101B", "EPOCH": "2025-12-06T06:36:33.009120", "MEAN_MOTION": 15.27917493, "ECCENTRICITY": 0.00075486, "INCLINATION": 97.2871, "RA_OF_ASC_NODE": 30.0678, "ARG_OF_PERICENTER": 101.8229, "MEAN_ANOMALY": 258.3858, "EPHEMERIS_TYPE": 0, "CLASSIFICATION_TYPE": "U", "NORAD_CAT_ID": 57400, "ELEMENT_SET_NO": 999, "REV_AT_EPOCH": 13216, "BSTAR": 0.00046140762, "MEAN_MOTION_DOT": 0.00012518, "MEAN_MOTION_DDOT": 0}, "tle": {"line1": "1 57400U 23101B   25340.27538205  .00012518  00000+0  46141-3 0  9994", "line2": "2 57400  97.2871  30.0678 0007548 101.8229 258.3858 15.27917493132163"}}, "geometry": {"type": "Point", "coordinates": [26.40662382498494, 28.51441798406963]}}]}